[{"OBJECT_NAME":"GLOBAL-34","OBJECT_ID":"2026-043A","EPOCH":"2026-03-11T00:57:19.013760","MEAN_MOTION":15.31537336,"ECCENTRICITY":0.00066961,"INCLINATION":42.0217,"RA_OF_ASC_NODE":67.7056,"ARG_OF_PERICENTER":297.7199,"MEAN_ANOMALY":62.2959,"EPHEMERIS_TYPE":0,"CLASSIFICATION_TYPE":"U","NORAD_CAT_ID":68098,"ELEMENT_SET_NO":999,"REV_AT_EPOCH":77,"BSTAR":0.00046633891,"MEAN_MOTION_DOT":0.00014293,"MEAN_MOTION_DDOT":0},{"OBJECT_NAME":"ELECTRON R/B","OBJECT_ID":"2026-043B","EPOCH":"2026-03-11T05:24:07.357824","MEAN_MOTION":16.08612785,"ECCENTRICITY":0.01266579,"INCLINATION":42.0104,"RA_OF_ASC_NODE":63.7396,"ARG_OF_PERICENTER":304.0123,"MEAN_ANOMALY":54.8764,"EPHEMERIS_TYPE":0,"CLASSIFICATION_TYPE":"U","NORAD_CAT_ID":68099,"ELEMENT_SET_NO":999,"REV_AT_EPOCH":83,"BSTAR":0.0013568511,"MEAN_MOTION_DOT":0.04396182,"MEAN_MOTION_DDOT":8.019136e-6},{"OBJECT_NAME":"ELECTRON KICK STAGE R/B","OBJECT_ID":"2026-043C","EPOCH":"2026-03-11T03:55:31.033632","MEAN_MOTION":16.09178519,"ECCENTRICITY":0.01108285,"INCLINATION":42.1162,"RA_OF_ASC_NODE":64.2884,"ARG_OF_PERICENTER":60.9066,"MEAN_ANOMALY":300.2846,"EPHEMERIS_TYPE":0,"CLASSIFICATION_TYPE":"U","NORAD_CAT_ID":68100,"ELEMENT_SET_NO":999,"REV_AT_EPOCH":81,"BSTAR":0.002029522,"MEAN_MOTION_DOT":0.05069526,"MEAN_MOTION_DDOT":8.362915e-6},{"OBJECT_NAME":"ECHOSTAR 25","OBJECT_ID":"2026-045A","EPOCH":"2026-03-10T08:18:42.478272","MEAN_MOTION":3.74435031,"ECCENTRICITY":0.62083129,"INCLINATION":26.8942,"RA_OF_ASC_NODE":71.1091,"ARG_OF_PERICENTER":174.1557,"MEAN_ANOMALY":199.6094,"EPHEMERIS_TYPE":0,"CLASSIFICATION_TYPE":"U","NORAD_CAT_ID":68126,"ELEMENT_SET_NO":999,"REV_AT_EPOCH":1,"BSTAR":0.0002887765,"MEAN_MOTION_DOT":1.692e-5,"MEAN_MOTION_DDOT":0}]
